[{"OBJECT_NAME":"STARLINK-4538","OBJECT_ID":"2022-097AU","EPOCH":"2026-03-09T21:22:51.438432","MEAN_MOTION":15.08837222,"ECCENTRICITY":0.00011952,"INCLINATION":53.2163,"RA_OF_ASC_NODE":103.2564,"ARG_OF_PERICENTER":78.151,"MEAN_ANOMALY":281.9616,"EPHEMERIS_TYPE":0,"CLASSIFICATION_TYPE":"U","NORAD_CAT_ID":53430,"ELEMENT_SET_NO":999,"REV_AT_EPOCH":19879,"BSTAR":1.098682e-6,"MEAN_MOTION_DOT":-2.7e-6,"MEAN_MOTION_DDOT":0},{"OBJECT_NAME":"YUNYAO-1 44","OBJECT_ID":"2025-059B","EPOCH":"2026-03-09T23:37:33.233088","MEAN_MOTION":15.10344945,"ECCENTRICITY":0.00180831,"INCLINATION":97.6069,"RA_OF_ASC_NODE":250.8958,"ARG_OF_PERICENTER":135.5449,"MEAN_ANOMALY":224.7236,"EPHEMERIS_TYPE":0,"CLASSIFICATION_TYPE":"U","NORAD_CAT_ID":63345,"ELEMENT_SET_NO":999,"REV_AT_EPOCH":5332,"BSTAR":0.0003556422,"MEAN_MOTION_DOT":5.791e-5,"MEAN_MOTION_DDOT":0}]
